satname,norad_id,inclination_deg,eccentricity,mean_motion_rev_per_day,perigee_km,apogee_km,l1,l2
STARLINK-1556,46033,53.0517,0.0001288,15.06402826,546.3109128901451,548.0948804475274,1 46033U 20055G   26057.58999295  .00002350  00000+0  17660-3 0  9996,2 46033  53.0517 176.4461 0001288  88.9108 271.2029 15.06402826307198
STARLINK-1557,46034,53.0553,0.0001462,15.06400457,546.1976715450546,548.2226430538494,1 46034U 20055H   26057.72637558  .00001912  00000+0  14724-3 0  9995,2 46034  53.0553 175.8346 0001462  90.3242 269.7915 15.06400457307211
STARLINK-1558,46035,53.0561,0.000106,15.06399693,546.4784118023426,547.9465858960994,1 46035U 20055J   26057.53470557  .00001510  00000+0  12024-3 0  9994,2 46035  53.0561 176.6971 0001060  77.0538 283.0569 15.06399693307211
STARLINK-1560,46036,53.0527,0.0001254,15.06398369,546.3481173868677,548.0849960588939,1 46036U 20055K   26057.71900381  .00002703  00000+0  20032-3 0  9991,2 46036  53.0527 175.8676 0001254  88.1975 271.9157 15.06398369307241
STARLINK-1567,46038,53.0559,0.000122,15.06395635,546.3800419107065,548.0698302231067,1 46038U 20055M   26057.59737406  .00000340  00000+0  41750-4 0  9991,2 46038  53.0559 176.4151 0001220  89.5760 270.5368 15.06395635307212
STARLINK-1569,46039,53.0576,9.92e-05,15.0639512,546.5395184151694,547.9135105364403,1 46039U 20055N   26057.73743027 -.00000003  00000+0  18674-4 0  9990,2 46039  53.0576 175.7842 0000992  92.0613 268.0490 15.06395120307231
STARLINK-1582,46043,53.0545,0.0001419,15.06435966,546.1186382024989,548.084020840417,1 46043U 20055S   26057.74480566  .00012569  00000+0  86038-3 0  9999,2 46043  53.0545 175.7519 0001419 102.3025 257.8123 15.06435966307232
STARLINK-1591,46045,53.0551,0.0001131,15.06402429,546.4208573331935,547.9873694930484,1 46045U 20055U   26057.50521854  .00001573  00000+0  12444-3 0  9994,2 46045  53.0551 176.8268 0001131  87.3337 272.7781 15.06402429307181
STARLINK-1524,46047,53.1583,0.0001188,15.29361007,476.90682047262453,478.5357724038586,1 46047U 20055W   26057.91668981 -.00021548  00000+0 -73643-3 0  9998,2 46047  53.1583 163.8152 0001188  86.7370 164.2551 15.29361007  5848
STARLINK-1527,46048,53.1557,0.0001313,15.29367221,476.80255389397917,478.60289740593544,1 46048U 20055X   26057.91668981 -.00016545  00000+0 -56207-3 0  9997,2 46048  53.1557 163.9409 0001313  81.3457 119.4597 15.29367221  5849
STARLINK-1540,46051,53.1529,8.53e-05,15.29258719,477.4421755140056,478.6118370934819,1 46051U 20055AA  26057.91668981  .00057709  00000+0  20026-2 0  9995,2 46051  53.1529 163.8359 0000853 102.4054 337.2682 15.29258719  5689
STARLINK-1541,46052,53.1377,0.0001572,15.25695865,487.6172130165205,489.77614552528394,1 46052U 20055AB  26057.91668981  .00067430  00000+0  26015-2 0  9992,2 46052  53.1377 163.8383 0001572  83.7496  75.1183 15.25695865  5720
STARLINK-1543,46053,53.1483,0.0001542,15.27870983,481.1200659821134,483.2357871054601,1 46053U 20055AC  26057.91668981  .01081256  00000+0  35836-1 0  9996,2 46053  53.1483 163.9054 0001542  86.4831  15.0384 15.27870983  5842
STARLINK-1548,46054,53.145,0.0001046,15.27205791,483.45204390355593,484.88763849473526,1 46054U 20055AD  26057.91668981  .00973110  00000+0  33209-1 0  9997,2 46054  53.1450 163.8999 0001046  65.7594 358.8633 15.27205791  5786
STARLINK-1554,46055,53.1384,0.0001293,15.25024472,489.82380786430986,491.6000922027888,1 46055U 20055AE  26057.91668981  .00570342  00000+0  21110-1 0  9996,2 46055  53.1384 163.9917 0001293  76.9888  17.4352 15.25024472  5675
STARLINK-1564,46058,53.1458,9.81e-05,15.27435466,482.8087921425149,484.1550417740227,1 46058U 20055AH  26057.91668981  .01051755  00000+0  35406-1 0  9995,2 46058  53.1458 164.3760 0000981  63.3113  14.3644 15.27435466  5632
STARLINK-1570,46059,53.1548,0.0001235,15.29365511,476.86113920376374,478.5545328782655,1 46059U 20055AJ  26057.91668981 -.00021223  00000+0 -72499-3 0  9999,2 46059  53.1548 163.9210 0001235  69.6474 202.9662 15.29365511  5685
STARLINK-1572,46060,53.1381,0.0001186,15.25649703,488.02077011246365,489.6496159166454,1 46060U 20055AK  26057.91668981  .01017326  00000+0  36243-1 0  9994,2 46060  53.1381 164.0342 0001186 105.9001 124.9047 15.25649703  5847
STARLINK-1573,46061,53.1593,0.0001142,15.29247807,477.2766435392341,478.84259884751555,1 46061U 20055AL  26057.91668981  .00460812  00000+0  15063-1 0  9993,2 46061  53.1593 163.9008 0001142  91.5528 253.7553 15.29247807  5730
STARLINK-1577,46063,53.1556,0.0001019,15.29375634,476.9789757563103,478.37619076837836,1 46063U 20055AN  26057.91668981 -.00021445  00000+0 -73254-3 0  9990,2 46063  53.1556 163.8390 0001019  88.9375 127.9127 15.29375634  5624
STARLINK-1583,46064,53.1558,9.43e-05,15.29366423,477.0586045869122,478.3516164089515,1 46064U 20055AP  26057.91668981 -.00018919  00000+0 -64476-3 0  9999,2 46064  53.1558 163.8566 0000943  98.9245 289.1792 15.29366423  5843
STARLINK-1525,46066,53.0528,0.0001244,15.06402294,546.3430146816163,548.0660396535759,1 46066U 20055AR  26057.62594936  .00004932  00000+0  34971-3 0  9992,2 46066  53.0528 146.2859 0001244  98.2960 261.8170 15.06402294307634
STARLINK-1536,46070,53.0552,0.0001626,15.06395147,546.1003676302507,548.3524958182461,1 46070U 20055AV  26057.53747552  .00000430  00000+0  47791-4 0  9995,2 46070  53.0552 146.6834 0001626 102.3636 257.7535 15.06395147307631
STARLINK-1542,46073,53.0535,0.0001403,15.06423511,546.1678847535695,548.1111173397621,1 46073U 20055AY  26057.53008960  .00010126  00000+0  69728-3 0  9997,2 46073  53.0535 146.7156 0001403  91.9448 268.1702 15.06423511307628
STARLINK-1549,46074,53.0562,0.0001358,15.06402779,546.2625795390913,548.1435018941511,1 46074U 20055AZ  26057.78073801  .00002222  00000+0  16801-3 0  9993,2 46074  53.0562 145.5918 0001358  98.2615 261.8528 15.06402779307659
STARLINK-1551,46075,53.0563,0.0001412,15.06392581,546.2564337710437,548.2121586250905,1 46075U 20055BA  26057.54115748  .00001953  00000+0  14998-3 0  9990,2 46075  53.0563 146.6639 0001412 102.2889 257.8258 15.06392581307624
STARLINK-1552,46076,53.0554,0.0001324,15.06389971,546.325375330638,548.1592157681007,1 46076U 20055BB  26057.63331323  .00001134  00000+0  95065-4 0  9996,2 46076  53.0554 146.2532 0001324  94.3154 265.7986 15.06389971307626
STARLINK-1559,46077,53.0282,0.0002608,15.28505039,478.4919182123522,482.06926882913103,1 46077U 20055BC  26057.77486652  .00047959  00000+0  17073-2 0  9994,2 46077  53.0282 124.7015 0002608 351.5766   8.5188 15.28505039307913
